H1 CPF  1  HTS 2022  9 13 12  7561 larets           NONE
H2  0304206 5557    27944 2022 09 13  0  0  0 2022 09 18  0  0  0   180 1 1  0 0 0
H5  0.0560 
H9 
10 0 59838   9000.00000  0    4411382.824     426920.758   -5499433.771
10 0 59838   9180.00000  0    5375328.465     141634.988   -4576893.957
10 0 59838   9360.00000  0    6136041.111    -171433.962   -3486801.232
10 0 59838   9540.00000  0    6664951.400    -495185.086   -2268826.598
10 0 59838   9720.00000  0    6942362.752    -811456.411    -967507.506
10 0 59838   9900.00000  0    6958276.373   -1101942.321     369394.623
10 0 59838  10080.00000  0    6712817.942   -1349139.777    1692694.388
10 0 59838  10260.00000  0    6216234.424   -1537273.689    2953661.354
10 0 59838  10440.00000  0    5488452.426   -1653147.157    4105888.053
10 0 59838  10620.00000  0    4558224.157   -1686870.962    5107050.794
10 0 59838  10800.00000  0    3461916.888   -1632433.156    5920486.812
10 0 59838  10980.00000  0    2242013.681   -1488081.677    6516529.527
10 0 59838  11160.00000  0     945401.749   -1256508.147    6873555.035
10 0 59838  11340.00000  0    -378472.531    -944825.748    6978719.594
10 0 59838  11520.00000  0   -1679507.734    -564342.419    6828373.894
10 0 59838  11700.00000  0   -2908840.545    -130141.307    6428158.935
10 0 59838  11880.00000  0   -4020673.223     339518.306    5792791.101
10 0 59838  12060.00000  0   -4973984.266     823958.448    4945538.881
10 0 59838  12240.00000  0   -5734063.073    1300971.762    3917395.598
10 0 59838  12420.00000  0   -6273806.687    1747809.742    2745966.864
10 0 59838  12600.00000  0   -6574723.799    2142227.229    1474106.698
10 0 59838  12780.00000  0   -6627603.357    2463535.406     148343.775
10 0 59838  12960.00000  0   -6432806.375    2693610.954   -1182847.430
10 0 59838  13140.00000  0   -6000162.997    2817806.667   -2470852.620
10 0 59838  13320.00000  0   -5348482.579    2825719.826   -3668723.621
10 0 59838  13500.00000  0   -4504700.911    2711776.205   -4732903.237
10 0 59838  13680.00000  0   -3502719.808    2475603.312   -5624792.853
10 0 59838  13860.00000  0   -2382006.266    2122181.978   -6312107.488
10 0 59838  14040.00000  0   -1186020.799    1661774.745   -6769987.351
10 0 59838  14220.00000  0      39463.956    1109633.541   -6981837.532
10 0 59838  14400.00000  0    1248084.830     485502.054   -6939885.935
10 0 59838  14580.00000  0    2394605.587    -187072.112   -6645462.125
10 0 59838  14760.00000  0    3436584.199    -881602.212   -6108980.448
10 0 59838  14940.00000  0    4335935.869   -1569677.200   -5349625.340
10 0 59838  15120.00000  0    5060346.407   -2222099.781   -4394740.998
10 0 59838  15300.00000  0    5584487.653   -2810114.000   -3278921.518
10 0 59838  15480.00000  0    5890977.583   -3306668.990   -2042811.338
10 0 59838  15660.00000  0    5971033.634   -3687660.694    -731643.148
10 0 59838  15840.00000  0    5824775.560   -3933088.460     606436.067
10 0 59838  16020.00000  0    5461152.457   -4028063.505    1922185.032
10 0 59838  16200.00000  0    4897486.217   -3963608.268    3167153.993
10 0 59838  16380.00000  0    4158652.581   -3737195.172    4295537.133
10 0 59838  16560.00000  0    3275954.441   -3353003.617    5265905.921
10 0 59838  16740.00000  0    2285744.160   -2821882.781    6042750.044
10 0 59838  16920.00000  0    1227874.347   -2161024.627    6597762.657
10 0 59838  17100.00000  0     144053.509   -1393372.263    6910832.226
10 0 59838  17280.00000  0    -923819.339    -546791.879    6970721.467
10 0 59838  17460.00000  0   -1935276.597     346959.046    6775427.199
10 0 59838  17640.00000  0   -2852809.032    1253430.318    6332222.667
10 0 59838  17820.00000  0   -3643251.388    2136805.278    5657385.477
10 0 59838  18000.00000  0   -4278985.400    2961312.194    4775619.294
10 0 59838  18180.00000  0   -4738921.199    3692674.533    3719176.080
10 0 59838  18360.00000  0   -5009217.109    4299540.398    2526697.148
10 0 59838  18540.00000  0   -5083705.559    4754833.077    1241808.529
10 0 59838  18720.00000  0   -4964003.352    5036957.883     -88486.466
10 0 59838  18900.00000  0   -4659300.122    5130798.289   -1415553.368
10 0 59838  19080.00000  0   -4185832.208    5028455.097   -2690941.591
10 0 59838  19260.00000  0   -3566065.278    4729683.372   -3868183.328
10 0 59838  19440.00000  0   -2827636.830    4242008.153   -4904493.450
10 0 59838  19620.00000  0   -2002119.573    3580525.046   -5762298.205
10 0 59838  19800.00000  0   -1123673.407    2767408.207   -6410550.474
10 0 59838  19980.00000  0    -227640.467    1831143.519   -6825798.169
10 0 59838  20160.00000  0     650856.614     805523.740   -6992975.518
10 0 59838  20340.00000  0    1478262.920    -271554.921   -6905914.473
10 0 59838  20520.00000  0    2223849.953   -1359463.831   -6567567.507
10 0 59838  20700.00000  0    2860842.377   -2416340.140   -5989935.106
10 0 59838  20880.00000  0    3367384.655   -3400670.606   -5193702.950
10 0 59838  21060.00000  0    3727318.686   -4272924.261   -4207578.637
10 0 59838  21240.00000  0    3930732.599   -4997163.341   -3067323.256
10 0 59838  21420.00000  0    3974260.990   -5542568.495   -1814507.477
10 0 59838  21600.00000  0    3861114.093   -5884809.652    -495009.412
10 0 59838  21780.00000  0    3600821.083   -6007178.030     842693.688
10 0 59838  21960.00000  0    3208694.011   -5901412.564    2149364.892
10 0 59838  22140.00000  0    2705038.024   -5568167.149    3376894.796
10 0 59838  22320.00000  0    2114147.177   -5017089.880    4480137.799
10 0 59838  22500.00000  0    1463148.721   -4266519.420    5418614.060
10 0 59838  22680.00000  0     780758.081   -3342815.858    6158008.522
10 0 59838  22860.00000  0      96004.978   -2279363.247    6671407.146
10 0 59838  23040.00000  0    -563003.641   -1115303.497    6940229.497
10 0 59838  23220.00000  0   -1170231.094     105939.540    6954853.289
10 0 59838  23400.00000  0   -1702731.766    1338298.429    6714921.953
10 0 59838  23580.00000  0   -2141511.211    2534803.401    6229330.105
10 0 59838  23760.00000  0   -2472199.126    3649369.432    5515894.883
10 0 59838  23940.00000  0   -2685515.675    4638573.678    4600722.802
10 0 59838  24120.00000  0   -2777519.121    5463364.480    3517283.093
10 0 59838  24300.00000  0   -2749622.583    6090633.432    2305202.931
10 0 59838  24480.00000  0   -2608377.959    6494576.666    1008821.543
10 0 59838  24660.00000  0   -2365036.660    6657782.557    -324443.945
10 0 59838  24840.00000  0   -2034908.007    6571991.585   -1645860.682
10 0 59838  25020.00000  0   -1636546.083    6238481.334   -2907202.653
10 0 59838  25200.00000  0   -1190804.657    5668045.906   -4062536.284
10 0 59838  25380.00000  0    -719820.633    4880597.528   -5069887.919
10 0 59838  25560.00000  0    -245976.229    3904417.071   -5892741.069
10 0 59838  25740.00000  0     209114.949    2775093.457   -6501315.253
10 0 59838  25920.00000  0     625552.434    1534197.146   -6873586.807
10 0 59838  26100.00000  0     985984.678     227751.279   -6996031.785
10 0 59838  26280.00000  0    1276309.491   -1095450.456   -6864086.584
10 0 59838  26460.00000  0    1486215.959   -2385629.223   -6482315.298
10 0 59838  26640.00000  0    1609553.347   -3593854.718   -5864287.253
10 0 59838  26820.00000  0    1644516.764   -4673888.915   -5032164.272
10 0 59838  27000.00000  0    1593639.024   -5583977.795   -4015979.878
10 0 59838  27180.00000  0    1463586.934   -6288518.715   -2852624.820
10 0 59838  27360.00000  0    1264763.079   -6759535.817   -1584551.441
10 0 59838  27540.00000  0    1010730.253   -6977881.508    -258229.723
10 0 59838  27720.00000  0     717480.243   -6934092.343    1077589.190
10 0 59838  27900.00000  0     402585.281   -6628843.164    2373725.653
10 0 59838  28080.00000  0      84276.976   -6072967.950    3582458.257
10 0 59838  28260.00000  0    -219498.609   -5287036.138    4659347.023
10 0 59838  28440.00000  0    -491997.120   -4300522.004    5564902.201
10 0 59838  28620.00000  0    -718512.363   -3150617.771    6266038.453
10 0 59838  28800.00000  0    -887093.514   -1880750.199    6737259.441
10 0 59838  28980.00000  0    -989112.598    -538883.155    6961535.128
10 0 59838  29160.00000  0   -1019663.012     824322.878    6930871.765
10 0 59838  29340.00000  0    -977774.411    2157435.235    6646562.156
10 0 59838  29520.00000  0    -866434.793    3410188.874    6119115.547
10 0 59838  29700.00000  0    -692424.255    4535379.992    5367873.925
10 0 59838  29880.00000  0    -465967.327    5490653.399    4420323.742
10 0 59838  30060.00000  0    -200217.146    6240122.866    3311115.716
10 0 59838  30240.00000  0      89406.660    6755757.103    2080820.119
10 0 59838  30420.00000  0     385998.820    7018480.368     774442.898
10 0 59838  30600.00000  0     672035.505    7018908.342    -560242.923
10 0 59838  30780.00000  0     930278.845    6757692.050   -1874474.629
10 0 59838  30960.00000  0    1144667.849    6245449.605   -3120312.104
10 0 59838  31140.00000  0    1301152.605    5502297.449   -4252403.977
10 0 59838  31320.00000  0    1388434.293    4557007.205   -5229636.735
10 0 59838  31500.00000  0    1398574.250    3445835.195   -6016599.323
10 0 59838  31680.00000  0    1327444.053    2211090.682   -6584816.589
10 0 59838  31860.00000  0    1174999.286     899507.773   -6913719.946
10 0 59838  32040.00000  0     945369.968    -439510.051   -6991341.266
10 0 59838  32220.00000  0     646763.160   -1755720.124   -6814721.528
10 0 59838  32400.00000  0     291180.386   -2999885.575   -6390026.614
10 0 59838  32580.00000  0    -106042.327   -4125588.334   -5732378.344
10 0 59838  32760.00000  0    -526862.977   -5090964.843   -4865384.310
10 0 59838  32940.00000  0    -951309.804   -5860300.196   -3820367.551
10 0 59838  33120.00000  0   -1358382.128   -6405421.323   -2635300.736
10 0 59838  33300.00000  0   -1727037.514   -6706819.831   -1353463.963
99
